[{"OBJECT_NAME":"CS1","OBJECT_ID":"2021-088B","EPOCH":"2026-03-09T18:02:30.253920","MEAN_MOTION":15.31848439,"ECCENTRICITY":0.00141292,"INCLINATION":97.3882,"RA_OF_ASC_NODE":132.1684,"ARG_OF_PERICENTER":78.0335,"MEAN_ANOMALY":282.249,"EPHEMERIS_TYPE":0,"CLASSIFICATION_TYPE":"U","NORAD_CAT_ID":49261,"ELEMENT_SET_NO":999,"REV_AT_EPOCH":24518,"BSTAR":0.00051175576,"MEAN_MOTION_DOT":0.00015722,"MEAN_MOTION_DDOT":0},{"OBJECT_NAME":"STARLINK-34653","OBJECT_ID":"2025-157P","EPOCH":"2026-03-09T23:27:42.734880","MEAN_MOTION":15.3020321,"ECCENTRICITY":0.00010209,"INCLINATION":53.1591,"RA_OF_ASC_NODE":344.6286,"ARG_OF_PERICENTER":98.4703,"MEAN_ANOMALY":261.6413,"EPHEMERIS_TYPE":0,"CLASSIFICATION_TYPE":"U","NORAD_CAT_ID":64917,"ELEMENT_SET_NO":999,"REV_AT_EPOCH":3611,"BSTAR":0.00075614537,"MEAN_MOTION_DOT":0.00022105,"MEAN_MOTION_DDOT":0}]
